H1 CPF 01  gfz 2022 09 28 12  7712 terrasarx 
H2 0702601  6201 31698    2022 09 28 12 59 42 2022 10 03 00 00 42   120 1 1  0 0 0
H9
10 0 59854  48942.000000  0   -2799480.251  -6279398.633   -453764.317
10 0 59854  49062.000000  0   -2912514.473  -6097656.196  -1350404.473
10 0 59854  49182.000000  0   -2970576.924  -5807964.113  -2223303.660
10 0 59854  49302.000000  0   -2970861.628  -5416451.191  -3057146.447
10 0 59854  49422.000000  0   -2911701.403  -4931064.010  -3837335.812
10 0 59854  49542.000000  0   -2792621.664  -4361395.865  -4550249.616
10 0 59854  49662.000000  0   -2614369.450  -3718487.727  -5183474.897
10 0 59854  49782.000000  0   -2378917.995  -3014606.246  -5726017.250
10 0 59854  49902.000000  0   -2089447.015  -2263003.690  -6168482.790
10 0 59854  50022.000000  0   -1750298.302  -1477664.757  -6503230.464
10 0 59854  50142.000000  0   -1366908.495   -673045.642  -6724492.212
10 0 59854  50262.000000  0    -945721.736    136189.324  -6828461.216
10 0 59854  50382.000000  0    -494082.640    935428.945  -6813349.748
10 0 59854  50502.000000  0     -20110.520   1710372.148  -6679416.455
10 0 59854  50622.000000  0     467441.703   2447276.921  -6428962.721
10 0 59854  50742.000000  0     959345.161   3133199.770  -6066299.645
10 0 59854  50862.000000  0    1446066.123   3756221.401  -5597681.080
10 0 59854  50982.000000  0    1917946.436   4305653.961  -5031205.777
10 0 59854  51102.000000  0    2365392.464   4772228.458  -4376689.488
10 0 59854  51222.000000  0    2779068.403   5148258.680  -3645505.096
10 0 59854  51342.000000  0    3150089.807   5427776.434  -2850393.582
10 0 59854  51462.000000  0    3470214.445   5606636.353  -2005247.865
10 0 59854  51582.000000  0    3732025.059   5682585.705  -1124871.708
10 0 59854  51702.000000  0    3929098.903   5655297.742   -224718.174
10 0 59854  51822.000000  0    4056159.609   5526366.370    679387.161
10 0 59854  51942.000000  0    4109207.595   5299261.459   1571532.089
10 0 59854  52062.000000  0    4085624.952   4979246.157   2436005.075
10 0 59854  52182.000000  0    3984253.821   4573260.846   3257581.250
10 0 59854  52302.000000  0    3805442.325   4089769.847   4021798.947
10 0 59854  52422.000000  0    3551061.038   3538580.871   4715217.125
10 0 59854  52542.000000  0    3224488.697   2930641.976   5325655.590
10 0 59854  52662.000000  0    2830563.522   2277817.019   5842408.270
10 0 59854  52782.000000  0    2375509.074   1592648.854   6256424.757
10 0 59854  52902.000000  0    1866832.842    888114.460   6560463.841
10 0 59854  53022.000000  0    1313198.879    177377.257   6749213.276
10 0 59854  53142.000000  0     724278.152   -526457.566   6819377.362
10 0 59854  53262.000000  0     110578.959  -1210584.755   6769732.148
10 0 59854  53382.000000  0    -516740.868  -1862731.940   6601145.026
10 0 59854  53502.000000  0   -1146076.732  -2471379.769   6316559.728
10 0 59854  53622.000000  0   -1765590.294  -3025965.282   5920946.564
10 0 59854  53742.000000  0   -2363429.775  -3517066.325   5421221.938
10 0 59854  53862.000000  0   -2927957.945  -3936565.934   4826135.593
10 0 59854  53982.000000  0   -3447982.984  -4277791.987   4146123.183
10 0 59854  54102.000000  0   -3912984.095  -4535628.171   3393126.243
10 0 59854  54222.000000  0   -4313327.249  -4706594.914   2580384.107
10 0 59854  54342.000000  0   -4640468.063  -4788898.896   1722200.833
10 0 59854  54462.000000  0   -4887136.633  -4782448.283    833689.154
10 0 59854  54582.000000  0   -5047498.638  -4688832.945    -69502.153
10 0 59854  54702.000000  0   -5117289.090  -4511270.515   -971472.157
10 0 59854  54822.000000  0   -5093914.630  -4254519.224  -1856357.448
10 0 59854  54942.000000  0   -4976520.913  -3924758.836  -2708620.247
10 0 59854  55062.000000  0   -4766023.808  -3529443.994  -3513326.793
10 0 59854  55182.000000  0   -4465105.513  -3077135.218  -4256410.957
10 0 59854  55302.000000  0   -4078176.076  -2577311.564  -4924918.995
10 0 59854  55422.000000  0   -3611301.194  -2040169.393  -5507230.398
10 0 59854  55542.000000  0   -3072099.342  -1476412.742  -5993251.672
10 0 59854  55662.000000  0   -2469611.067   -897039.413  -6374581.086
10 0 59854  55782.000000  0   -1814142.462   -313127.521  -6644642.741
10 0 59854  55902.000000  0   -1117086.483    264373.111  -6798787.811
10 0 59854  56022.000000  0    -390727.443    824840.833  -6834364.960
10 0 59854  56142.000000  0     351970.846   1358172.613  -6750761.056
10 0 59854  56262.000000  0    1097589.668   1854960.728  -6549411.346
10 0 59854  56382.000000  0    1832492.966   2306655.899  -6233779.362
10 0 59854  56502.000000  0    2543071.843   2705713.027  -5809303.537
10 0 59854  56622.000000  0    3215993.339   3045717.404  -5283312.108
10 0 59854  56742.000000  0    3838448.344   3321489.341  -4664908.156
10 0 59854  56862.000000  0    4398397.748   3529167.029  -3964823.928
10 0 59854  56982.000000  0    4884810.416   3666263.802  -3195243.994
10 0 59854  57102.000000  0    5287886.514   3731698.412  -2369599.516
10 0 59854  57222.000000  0    5599261.885   3725798.504  -1502337.631
10 0 59854  57342.000000  0    5812188.649   3650274.902   -608667.906
10 0 59854  57462.000000  0    5921686.040   3508167.369    295707.862
10 0 59854  57582.000000  0    5924658.451   3303763.035   1194877.938
10 0 59854  57702.000000  0    5819975.644   3042488.604   2073009.218
10 0 59854  57822.000000  0    5608513.108   2730780.042   2914634.533
10 0 59854  57942.000000  0    5293152.200   2375932.502   3704933.941
10 0 59854  58062.000000  0    4878738.178   1985933.672   4430002.242
10 0 59854  58182.000000  0    4371998.805   1569286.033   5077095.355
10 0 59854  58302.000000  0    3781429.715   1134822.637   5634854.640
10 0 59854  58422.000000  0    3117141.933    691520.102   6093505.355
10 0 59854  58542.000000  0    2390679.940    248313.382   6445020.678
10 0 59854  58662.000000  0    1614816.924   -186082.326   6683255.381
10 0 59854  58782.000000  0     803327.548   -603341.739   6804049.040
10 0 59854  58902.000000  0     -29259.274   -995688.522   6805294.409
10 0 59854  59022.000000  0    -867920.724  -1356039.396   6686970.935
10 0 59854  59142.000000  0   -1697410.409  -1678132.144   6451144.119
10 0 59854  59262.000000  0   -2502533.615  -1956633.963   6101930.514
10 0 59854  59382.000000  0   -3268423.990  -2187229.504   5645432.347
10 0 59854  59502.000000  0   -3980822.080  -2366689.648   5089639.072
10 0 59854  59622.000000  0   -4626346.174  -2492917.452   4444292.155
10 0 59854  59742.000000  0   -5192749.895  -2564969.847   3720718.186
10 0 59854  59862.000000  0   -5669161.417  -2583054.438   2931632.934
10 0 59854  59982.000000  0   -6046300.392  -2548502.562   2090919.411
10 0 59854  60102.000000  0   -6316667.965  -2463719.730   1213381.541
10 0 59854  60222.000000  0   -6474702.514  -2332112.049    314476.255
10 0 59854  60342.000000  0   -6516896.437  -2157990.855   -589966.166
10 0 59854  60462.000000  0   -6441873.136  -1946458.575  -1484030.523
10 0 59854  60582.000000  0   -6250418.920  -1703278.673  -2352005.892
10 0 59854  60702.000000  0   -5945471.546  -1434733.484  -3178668.295
10 0 59854  60822.000000  0   -5532066.299  -1147473.525  -3949551.529
10 0 59854  60942.000000  0   -5017241.699   -848362.196  -4651200.875
10 0 59854  61062.000000  0   -4409907.640   -544319.313  -5271404.999
10 0 59854  61182.000000  0   -3720679.032   -242167.878  -5799401.851
10 0 59854  61302.000000  0   -2961680.179     51512.824  -6226055.187
10 0 59854  61422.000000  0   -2146325.506    330524.482  -6544000.487
10 0 59854  61542.000000  0   -1289080.243    589174.330  -6747760.800
10 0 59854  61662.000000  0    -405205.294    822386.032  -6833830.944
10 0 59854  61782.000000  0     489508.940   1025795.921  -6800729.998
10 0 59854  61902.000000  0    1379016.472   1195831.333  -6649025.205
10 0 59854  62022.000000  0    2247297.838   1329772.333  -6381325.363
10 0 59854  62142.000000  0    3078643.292   1425795.123  -6002240.548
10 0 59854  62262.000000  0    3857933.163   1482995.750  -5518309.718
10 0 59854  62382.000000  0    4570910.817   1501394.355  -4937898.939
10 0 59854  62502.000000  0    5204446.999   1481920.248  -4271068.789
10 0 59854  62622.000000  0    5746788.165   1426377.233  -3529409.762
10 0 59854  62742.000000  0    6187783.359   1337389.570  -2725849.353
10 0 59854  62862.000000  0    6519086.101   1218329.643  -1874432.766
10 0 59854  62982.000000  0    6734325.155   1073228.823   -990078.375
10 0 59854  63102.000000  0    6829237.999    906672.559    -88313.352
10 0 59854  63222.000000  0    6801762.708    723683.108    815004.841
10 0 59854  63342.000000  0    6652087.534    529592.862   1703973.988
10 0 59854  63462.000000  0    6382656.004    329909.858   2562936.778
10 0 59854  63582.000000  0    5998124.090    130180.518   3376765.472
10 0 59854  63702.000000  0    5505273.916    -64147.770   4131135.369
10 0 59854  63822.000000  0    4912885.062   -247858.846   4812780.229
10 0 59854  63942.000000  0    4231569.393   -416093.667   5409727.989
10 0 59854  64062.000000  0    3473569.205   -564466.393   5911509.108
10 0 59854  64182.000000  0    2652528.625   -689166.445   6309335.369
10 0 59854  64302.000000  0    1783241.616   -787046.465   6596248.018
10 0 59854  64422.000000  0     881381.339   -855693.924   6767234.630
10 0 59854  64542.000000  0     -36785.895   -893485.211   6819311.243
10 0 59854  64662.000000  0    -954694.234   -899620.989   6751569.826
10 0 59854  64782.000000  0   -1855775.903   -874142.753   6565192.422
10 0 59854  64902.000000  0   -2723758.555   -817929.465   6263431.387
10 0 59854  65022.000000  0   -3542958.152   -732674.871   5851557.309
10 0 59854  65142.000000  0   -4298565.146   -620845.966   5336773.847
10 0 59854  65262.000000  0   -4976918.098   -485623.686   4728098.171
10 0 59854  65382.000000  0   -5565758.255   -330826.109   4036207.726
99
